Address	City	State	Zip
691 S Hughes Blvd		Elizabeth City	NC	27909-4530
298 Premier Blvd.		Roanoke Rapids	NC	27870-5076
5597-A North Croatan Highway		Kitty Hawk	NC	27949-4090
731 Sutters Creek Blvd		Rocky Mount	NC	27804-8452
12000 Retail Dr		Wake Forest	NC	27587-7353
10760 Wakefield Commons Dr.	Ste. 109	Raleigh	NC	27614-8437
9630 Falls of the Neuse Road	101	Raleigh	NC	27615-2434
3801 Guess Road		Durham	NC	27705-1505
9441 Strickland Road	Unit R06	Raleigh	NC	27615-1934
7900 Old Wake Forest Rd		Raleigh	NC	27616-3319
5959 Triangle Town Boulevard	Unit CL1136	Raleigh	NC	27616-3268
7498 Creedmor Road		Raleigh	NC	27613-1664
3457 Hillsborough Road		Durham	NC	27705-3008
2301 Erwin Rd		Durham	NC	27705-4699
4037 Chapel Hill Blvd		Durham	NC	27707-2516
1817 Martin Luther King Jr. Pkwy		Durham	NC	27707-3585
7854 Alexander Promenade Pl.	Bldg. H, Ste. 1	Raleigh	NC	27617-7833
5319 New Hope Commons Dr	Suite 105	Durham	NC	27707-9610
4834 NC Hwy 55		Durham	NC	27713-2257
1125 West North Carolina 54 Hwy		Durham	NC	27707-5715
6813 Fayetteville Road		Durham	NC	27713-8721
1800 E Franklin Street	Suite B	Chapel Hill	NC	27514-5816
8210 Renaissance Pkwy		Durham	NC	27713-6688
103 East Franklin Street		Chapel Hill	NC	27514-3620
5980 University Parkway		Winston-Salem	NC	27105-1342
5420 University Pkwy		Winston-Salem	NC	27105-1366
2898 Reynolda Road		Winston-Salem	NC	27106-3168
3327 Robinhood Road		Winston-Salem	NC	27106-5403
1834 Wake Forest Rd		Winston-Salem	NC	27109-6000
110 Oakwood Drive	Space U122	Winston-Salem	NC	27103-1957
460 N Cherry St		Winston-Salem	NC	27101-2898
605 Jonestown Road		Winston-Salem	NC	27103-1206
3320  Silas Creek Parkway	PK44	Winston-Salem	NC	27103-3031
2015 Frontis Plaza Boulevard		Winston Salem	NC	27103
2785 Lewisville-Clemmons Rd		Clemmons	NC	27012-8715
1024 S Main St		Kernersville	NC	27284-8178
1022-M South Main Street		Kernersville	NC	27284-4603
971 S Main St		Kernersville	NC	27284-7439
4016 Battleground Ave		Greensboro	NC	27410-9799
1628 Highwoods Blvd		Greensboro	NC	27410-2048
1562 Highwoods Blvd	Suite C	Greensboro	NC	27410-2056
701 Frances King St		Greensboro	NC	27410-4105
3875 John Gordon Lane		High Point	NC	27265-8046
5607 W Friendly Ave		Greensboro	NC	27410-4276
2969 Battleground Avenue		Greensboro	NC	27408-2705
505 Pisgah Church Road		Greensboro	NC	27455-2523
1603 Battleground Avenue		Greensboro	NC	27408-8049
3330 W. Friendly Ave.		Greensboro	NC	27410-4806
1601 E Market St		Greensboro	NC	27411-0002
2727 Church St.		Burlington	NC	27215-5103
451 Huffman Mill Road		Burlington	NC	27215-5118
1447 "A" University Drive		Burlington	NC	27215-8790
1475 University Dr		Burlington	NC	27215-8768
400 Four Seasons Town Centre	Space #1K5-A	Greensboro	NC	27407-4743
3711 Elmsley Street	Suite 108	Greensboro	NC	27406-7039
5635 Riverdale Dr		Jamestown	NC	27282-9171
265 Eastchester Dr		High Point	NC	27262-7731
2101 N. Main Street	Suite 103	High Point	NC	27262-7700
2110 Estes Dr		Chapel Hill	NC	27516-9479
240 Shadowline Dr		Boone	NC	28607-5088
104 Ridge Rd		Chapel Hill	NC	27514-4387
101 Manning Dr		Chapel Hill	NC	27514-4220
1119 Slater Rd		Durham	NC	27703-8474
1025 Airside Dr		Raleigh	NC	27623
2400 W Terminal Blvd		Morrisville	NC	27560-9217
88 Chatham Downs		Chapel Hill	NC	27517-6111
1025 Airside Dr		Raleigh	NC	27623
1150 Green Level to Durham Rd		Cary	NC	27519-8341
3608-400 Davis Drive		Morrisville	NC	27560-8818
125 Weston Parkway		Cary	NC	27513-2424
2840 NC Highway 55		Cary	NC	27519-5685
98 Cornerstone Dr		Cary	NC	27519-8404
1904 Northwest Maynard Road		Cary	NC	27513-4997
1107 Walnut Street	Suite 102	Cary	NC	27511-4734
900 Spring Forest Road	Suite 103	Raleigh	NC	27609-9122
6282 Glenwood Avenue		Raleigh	NC	27612-2651
4325 Glen Wood Avenue	Space 1121	Raleigh	NC	27612-4532
4421 Six Forks Road	116	Raleigh	NC	27609-5761
4191 The Circle at N Hills St.		Raleigh	NC	27609-5712
4160 Main Street	Suite 105	Raleigh	NC	27609-5754
3101-105 Edwards Mill Road		Raleigh	NC	27612-5303
3023 Capital Blvd.		Raleigh	NC	27604-3382
3800 Lake Boone Trail		Raleigh	NC	27607-2927
500 Oberlin Road		Raleigh	NC	27605-1318
609 W Peace St		Raleigh	NC	27605-1519
500 Fayetteville St. Mall		Raleigh	NC	27601-2118
916 East Innes Street		Salisbury	NC	28144-4638
1501 East Broad Street		Statesville	NC	28625-4481
594 River Hwy		Mooresville	NC	28117-6829
109 Williamson Road		Mooresville	NC	28117-6922
134 Town Center Drive		Mooresville	NC	28117-9158
118 Argus Lane		Mooresville	NC	28117-6977
3001 MARKET CENTER DRIVE		MORRISVILLE	NC	27560
235 Medical Park Road		Mooresville	NC	28117-8545
1490 US Highway 29		Concord	NC	28027
6150 Bayfield Pkwy		Concord	NC	28027-7486
431 Peninsula Drive		Davidson	NC	28036-7060
6065 Bayfield Pkwy		Concord	NC	28027-7597
9900-Suite 124 Poplar Tent Rd		Concord	NC	28027-9304
19722 One Lake Norman Blvd	Suite 200	Cornelius	NC	28031-5911
19815 N Cove Rd		Cornelius	NC	28031-8816
9932 Knockando Lane		Huntersville	NC	28078-5054
9801 Sam Furr Rd		Huntersville	NC	28078-8219
16846B Birkdale Commons Pkwy		Huntersville	NC	28078-1814
7741 Gateway Lane NW	Suite 130	Concord	NC	28027-5412
8111 Concord Mills Blvd	342	Concord	NC	28027-6462
7715 Regency Lake Dr		Huntersville	NC	28078-8938
9832 Gilead Road	Space D101	Huntersville	NC	28078-7512
2121 East Arbors Drive	Suite 110	Charlotte	NC	28262-2571
8439 Davis Lake Parkway		Charlotte	NC	28269-0539
9211 North Tryon Street		Charlotte	NC	28262-8423
6801 Northlake Mall Drive	Space K101	North Charlotte	NC	28216-3328
9201 University City Blvd		Charlotte	NC	28223-0001
9841 Northlake Ctr Pkwy		Charlotte	NC	28216-8930
1525 W WT Harris Blvd		Charlotte	NC	28262-8522
8514 University Center Blvd		Charlotte	NC	28262
1342 2nd St., NE		Hickory	NC	28601-2555
1186 Lenoir Rhyne Blvd		Hickory	NC	28602-5169
800 W Trade St	Ste 140	Charlotte	NC	28202-1198
101 S. Tryon Street		Charlotte	NC	28280-0002
101 N Tryon St		Charlotte	NC	28246-0100
201 South College Street		Charlotte	NC	28244-0002
501 S College St		Charlotte	NC	28202-1827
900 Metropolitan Ave		Charlotte	NC	28204-3177
1961 East 7th Street		Charlotte	NC	28204-2417
1025 Morehead Medical Drive		Charlotte	NC	28204-2963
545 Providence Rd.		Charlotte	NC	28207-1653
5501 Josh Birmingham Parkway		Charlotte	NC	28208-5750
5501 Josh Birmingham Parkway		Charlotte	NC	28208-5750
5501 Josh Birmingham Pkwy		Charlotte	NC	28208-5750
5502 Josh Birmingham Parkway		Charlotte	NC	28208-5746
5501 Josh Birmingham Parkway		Charlotte	NC	28208-5750
5501 Josh Birmingham Parkway		Charlotte	NC	28208-5750
1401 East Boulevard		Charlotte	NC	28203-5817
5501 Josh Birmingham Pkwy		Charlotte	NC	28208-5750
4450 Randolph Rd. Ste 100		Charlotte	NC	28211-2388
1630 Woodlawn Avenue		Charlotte	NC	28209-2269
6701 Morrison Blvd.		Charlotte	NC	28211-5000
425 Cox Rd		Gastonia	NC	28054
4400 Sharron Road	C7B	Charlotte	NC	28211-3531
2233 Matthews Township Parkway	Suite A	Matthews	NC	28105-4823
1900 Matthews Township Pkwy		Matthews	NC	28105-4660
1811 Matthews Township Pkwy		Matthews	NC	28105-4659
7819 Forest Pine Drive		Charlotte	NC	28273
12830 Walker Branch Dr		Charlotte	NC	28273-8850
4100 Carmel Road	Suite L	Charlotte	NC	28226-6151
8951-A SOUTH TRYON STREET		Charlotte	NC	28273-3309
3333 Pineville Matthews Rd		Charlotte	NC	28226-9322
9531 South Blvd		Charlotte	NC	28273-6901
9015 Pineville-Matthews Road		Charlotte	NC	28134-8800
6432 Rea Road		Charlotte	NC	28277-2528
13000 S Tryon St		Charlotte	NC	28278-7652
11025 Carolina Place Parkway	A-140	Pineville	NC	28134-8399
10616 Providence Road		Charlotte	NC	28277-0233
5361 Ballantyne Commons Pkwy	100	Charlotte	NC	28277-0525
12807 South Tyron St	200	Charlotte	NC	28273-6949
7860 Rea Rd		Charlotte	NC	28277-6502
7922 Rea Road		Charlotte	NC	28277-6576
6701 Old Monroe Rd	Suite A	Indian Trail	NC	28079-6628
13855 Conlan Circle		Charlotte	NC	28277-3654
9820-A Rea Road		Charlotte	NC	28277-6681
9870 Rea Rd		Charlotte	NC	28277-6655
13639 Providence Rd		Matthews	NC	28104-9373
2937 Monroe Way		Monroe	NC	28110
2901 W Hwy 74		Monroe	NC	28110-8435
16625 Lancaster Hwy		Charlotte	NC	28277-2038
6350 Weddington Monroe Rd		Wesley Chapel	NC	28104-7924
1201 Beaver Creek Commons Dr		Apex	NC	27502-3922
750 W Williams St		Apex	NC	27502-5100
940 US Hwy 64		Apex	NC	27523-7184
1217 Kildaire Farm Road		Cary	NC	27511-5523
204 Crossroads Plaza	Suite 200	Cary	NC	27511-6705
5277 Sunset Lake Rd		Holly Springs	NC	27540-3768
1151 TRYON VILLAGE DRIVE		Cary	NC	27518-7168
8204 Tryon Woods Dr	Suite 120	Cary	NC	27518-7164
1380 North Main St		Fuquay-Varina	NC	27526-2617
Rt. 401 & Ten Ten		Garner	NC	27529
110 Columbus Drive		Aberdeen	NC	28315-2387
3571 Butner Road	Bldg 8-5476A	Fort Bragg	NC	28310
Building 42171 Reilly Road		Fort Bragg	NC	28307
565 Cross Creek Mall	Suite 100	Fayetteville	NC	28303-7245
2056 Skibo Rd		Fayetteville	NC	28314-2245
2800 Raeford Rd		Fayetteville	NC	28303-9611
1445 Walter Reed Road		Fayetteville	NC	28304-4401
4421 New Bern Avenue		Raleigh	NC	27610-1443
13024 US Highway 70W	Suite 103	Clayton	NC	27520-2282
1000 Shoppes at Midway Dr		Knightdale	NC	27545-7313
1 University Rd		Pembroke	NC	28372-8699
2116-A Wayne Memorial Dr		Goldsboro	NC	27534-1760
603 North Berkeley Blvd		Goldsboro	NC	27534-3443
1204 Sunburst Dr		Goldsboro	NC	27534-8202
3401 Raleigh Rd Pkwy W		Wilson	NC	27896-8218
3401 Raleigh Rd	Suite 10 D	Wilson	NC	27896-8218
2205 W. Arlington Blvd.	Unit A	Greenville	NC	27834-7529
3040 EVANS ST		Greenville	NC	27834
518-B Greenville Blvd. SE		Greenville	NC	27858-6757
2020 E Firetower Rd		Greenville	NC	27858-4134
100 East 10th Street		Greenville	NC	27858-3301
100 Founders Wy		Greenville	NC	27858435
2019 S Glenburnie Road		New Bern	NC	28562-5228
3410 Dr Martin Luther King Blvd		New Bern	NC	28562-5220
370 Western Boulevard		Jacksonville	NC	28546-6303
5186 Hwy 70	Unit A	Morehead City	NC	28557
114 Carbon City Rd		Morganton	NC	28655-4226
220 Highland Lake Rd		Flat Rock	NC	28731-8568
3643 Howard Gap Rd		Hendersonville	NC	28792-3164
550 HIGHWAY 9		Black Mountain	NC	28711
6000 Hendersonville Rd		Fletcher	NC	28732-9627
15 McKenna Rd		Arden	NC	28704-9201
1865 Hendersonville Rd		Asheville	NC	28803-3217
1141 Tunnel Rd		Asheville	NC	28805-2037
1378 Hendersonville Road		Asheville	NC	28803-1957
3 S Tunnel Road		Asheville	NC	28805-2238
301 Long Shoals Rd		Arden	NC	28704-7713
29 Tunnel Rd		Asheville	NC	28805-1229
40 All Souls Crescent Street		Asheville	NC	28803-2670
62 Charlotte Street		Asheville	NC	28801-2434
915 Merrimon Ave		Asheville	NC	28804-2304
140 Weaver Blvd		Weaverville	NC	28787-8345
575 New Leicester Hwy		Asheville	NC	28806-2122
710 N Broad St		Brevard	NC	28712-3102
630 Champion Dr		Canton	NC	28716-3032
3500 Oleander Dr	#1072	Wilmington	NC	28403-0846
317-1 S. College Road	317	Wilmington	NC	28403-1601
2800 S College Rd		Wilmington	NC	28412-6827
1005 International Drive		Wilmington	NC	28405-4176
1705 Eastwood Rd	Ste 5E2	Wilmington	NC	28403-3640
201 Barber Blvd		Waynesville	NC	28786-2872
517 Centennial Drive		Cullowhee	NC	28723
